STARLINK-34374          
1 64308U 25123T   26166.54136248  .00002886  00000+0  24949-3 0  9992
2 64308  70.0015 307.8175 0003064 269.9032  90.1776 14.98336338 56279
STARLINK-34370          
1 64309U 25123U   26166.53301406  .00003270  00000+0  28164-3 0  9993
2 64309  70.0014 307.7870 0003137 269.2892  90.7908 14.98335936 56274
STARLINK-34357          
1 64310U 25123V   26166.48695830  .00003111  00000+0  26837-3 0  9995
2 64310  70.0019 308.0358 0003245 269.1089  90.9698 14.98337930 56266
STARLINK-34368          
1 64311U 25123W   26166.54537230  .00000946  00000+0  87004-4 0  9999
2 64311  70.0020 307.8278 0002061 271.2328  88.8595 14.98340755 56274
STARLINK-34384          
1 64312U 25123X   26166.53702502  .00002317  00000+0  20186-3 0  9996
2 64312  70.0012 307.8070 0002856 268.7018  91.3814 14.98333243 56272
STARLINK-34358          
1 64313U 25123Y   26166.52867868  .00000137  00000+0  19250-4 0  9992
2 64313  70.0007 307.7777 0002448 262.7535  97.3346 14.98336448 56271
STARLINK-34354          
1 64314U 25123Z   26166.52034914  .00008115  00000+0  68703-3 0  9991
2 64314  70.0008 307.7473 0003292 268.8123  91.2659 14.98334306 56275
STARLINK-34387          
1 64315U 25123AA  26166.51198138  .00005900  00000+0  50182-3 0  9991
2 64315  70.0019 307.7197 0003056 265.9563  94.1247 14.98333370 56270
STARLINK-33590          
1 64316U 25123AB  26166.52051304  .00009751  00000+0  82382-3 0  9991
2 64316  70.0011 307.7410 0003198 268.0824  91.9968 14.98332241 56273
STARLINK-11736 [DTC]    
1 64317U 25124A   26165.28870700  .00165367  00000+0  12625-2 0  9992
2 64317  42.9984 167.2402 0001472 237.4495 122.6231 15.70921190 58026
STARLINK-11673 [DTC]    
1 64318U 25124B   26166.03046826  .00025198  00000+0  19928-3 0  9992
2 64318  42.9993 162.4708 0001221 250.0389 110.0347 15.70838944 58144
STARLINK-11671 [DTC]    
1 64319U 25124C   26165.70193260  .00184641  00000+0  13958-2 0  9996
2 64319  42.9986 164.3018 0003371 286.0199  74.0297 15.71089455 58091
STARLINK-11594 [DTC]    
1 64320U 25124D   26165.48476374  .00222371  00000+0  16873-2 0  9995
2 64320  42.9983 166.1334 0001337 271.9110  88.1604 15.70885194 58054
STARLINK-11596 [DTC]    
1 64321U 25124E   26165.28339840  .00170347  00000+0  12959-2 0  9996
2 64321  42.9952 167.1993 0001872 121.6584 238.4466 15.70989211 58021
STARLINK-11747 [DTC]    
1 64322U 25124F   26165.71786759  .00171187  00000+0  13105-2 0  9997
2 64322  43.0014 164.4275 0000393 243.4460 116.6367 15.70835700 58096
STARLINK-11728 [DTC]    
1 64323U 25124G   26166.25825610  .00164841  00000+0  12589-2 0  9992
2 64323  43.0011 160.7251 0001271 234.1393 125.9356 15.70914940 58180
STARLINK-11696 [DTC]    
1 64324U 25124H   26166.26887576  .00163201  00000+0  12474-2 0  9995
2 64324  42.9993 160.8079 0001723 255.8728 104.1948 15.70900101 58181
STARLINK-11698 [DTC]    
1 64325U 25124J   26165.70284684  .00170145  00000+0  12997-2 0  9990
2 64325  42.9973 164.3080 0001388 267.3378  92.7331 15.70891599 58095
STARLINK-11678 [DTC]    
1 64326U 25124K   26166.50002315  .00626290  00000+0  26824-2 0  9990
2 64326  42.9952 159.1720 0002494 131.5329 192.9581 15.82682452  6084
STARLINK-11674 [DTC]    
1 64327U 25124L   26166.32714662  .00142708  00000+0  10941-2 0  9996
2 64327  42.9995 160.3789 0002783 258.1907 101.8648 15.70894347 58197
STARLINK-11707 [DTC]    
1 64328U 25124M   26165.26217549  .00097927  00000+0  75606-3 0  9993
2 64328  42.9990 167.0247 0001763 266.1293  93.9373 15.70891480 58023
STARLINK-11734 [DTC]    
1 64329U 25124N   26166.44369904  .00189424  00000+0  14347-2 0  9996
2 64329  42.9991 159.5282 0001813 291.9320  68.1355 15.71031544 58216
STARLINK-34252          
1 64330U 25124P   26163.66507866  .00020953  00000+0  76822-3 0  9998
2 64330  43.0090 305.5237 0002995 283.3622  76.6896 15.27602351 56308
STARLINK-34050          
1 64331U 25124Q   26166.07410127  .00016038  00000+0  59098-3 0  9995
2 64331  43.0041 291.7753 0001480 272.0736  87.9946 15.27584110 57734
STARLINK-33782          
1 64332U 25124R   26166.06252813  .00017737  00000+0  65189-3 0  9996
2 64332  42.9932 291.6831 0000652  76.3798 283.7127 15.27611294 56674
STARLINK-34207          
1 64333U 25124S   26166.08053124  .00016105  00000+0  59333-3 0  9995
2 64333  43.0050 291.8292 0002234 279.0131  81.0467 15.27589275 56671
STARLINK-34260          
1 64334U 25124T   26165.63054992  .00020016  00000+0  73537-3 0  9998
2 64334  43.0017 294.4668 0002177 269.8025  90.2577 15.27558127 56605
STARLINK-33855          
1 64335U 25124U   26166.05867526  .00017916  00000+0  65876-3 0  9993
2 64335  42.9979 291.6526 0002258 267.9936  92.0657 15.27591391 56679
STARLINK-34223          
1 64336U 25124V   26166.04759978  .00023956  00000+0  87718-3 0  9994
2 64336  42.9983 288.1072 0001133 280.0230  80.0493 15.27582219 56715
STARLINK-34216          
1 64337U 25124W   26166.04454437  .00014801  00000+0  54625-3 0  9997
2 64337  42.9995 291.5503 0001895 272.7615  87.3019 15.27582123 56679
