OBJECT_NAME,OBJECT_ID,EPOCH,MEAN_MOTION,ECCENTRICITY,INCLINATION,RA_OF_ASC_NODE,ARG_OF_PERICENTER,MEAN_ANOMALY,EPHEMERIS_TYPE,CLASSIFICATION_TYPE,NORAD_CAT_ID,ELEMENT_SET_NO,REV_AT_EPOCH,BSTAR,MEAN_MOTION_DOT,MEAN_MOTION_DDOT
STARLINK-34374,2025-123T,2026-06-15T12:59:33.718272,14.98336338,.0003064,70.0015,307.8175,269.9032,90.1776,0,U,64308,999,5627,.24949E-3,.2886E-4,0
STARLINK-34370,2025-123U,2026-06-15T12:47:32.414784,14.98335936,.0003137,70.0014,307.7870,269.2892,90.7908,0,U,64309,999,5627,.28164E-3,.327E-4,0
STARLINK-34357,2025-123V,2026-06-15T11:41:13.197120,14.98337930,.0003245,70.0019,308.0358,269.1089,90.9698,0,U,64310,999,5626,.26837E-3,.3111E-4,0
STARLINK-34368,2025-123W,2026-06-15T13:05:20.166720,14.98340755,.0002061,70.0020,307.8278,271.2328,88.8595,0,U,64311,999,5627,.87004E-4,.946E-5,0
STARLINK-34384,2025-123X,2026-06-15T12:53:18.961728,14.98333243,.0002856,70.0012,307.8070,268.7018,91.3814,0,U,64312,999,5627,.20186E-3,.2317E-4,0
STARLINK-34358,2025-123Y,2026-06-15T12:41:17.837952,14.98336448,.0002448,70.0007,307.7777,262.7535,97.3346,0,U,64313,999,5627,.1925E-4,.137E-5,0
STARLINK-34354,2025-123Z,2026-06-15T12:29:18.165696,14.98334306,.0003292,70.0008,307.7473,268.8123,91.2659,0,U,64314,999,5627,.68703E-3,.8115E-4,0
STARLINK-34387,2025-123AA,2026-06-15T12:17:15.191232,14.98333370,.0003056,70.0019,307.7197,265.9563,94.1247,0,U,64315,999,5627,.50182E-3,.59E-4,0
STARLINK-33590,2025-123AB,2026-06-15T12:29:32.326656,14.98332241,.0003198,70.0011,307.7410,268.0824,91.9968,0,U,64316,999,5627,.82382E-3,.9751E-4,0
STARLINK-11736 [DTC],2025-124A,2026-06-14T06:55:44.284800,15.70921190,.0001472,42.9984,167.2402,237.4495,122.6231,0,U,64317,999,5802,.12625E-2,.165367E-2,0
STARLINK-11673 [DTC],2025-124B,2026-06-15T00:43:52.457664,15.70838944,.00012215,42.9993,162.4708,250.0389,110.0347,0,U,64318,999,5814,.19927966E-3,.25198E-3,0
STARLINK-11671 [DTC],2025-124C,2026-06-14T16:50:46.976640,15.71089455,.00033713,42.9986,164.3018,286.0199,74.0297,0,U,64319,999,5809,.13958079E-2,.184641E-2,0
STARLINK-11594 [DTC],2025-124D,2026-06-14T11:38:03.587136,15.70885194,.00013373,42.9983,166.1334,271.9110,88.1604,0,U,64320,999,5805,.16873264E-2,.222371E-2,0
STARLINK-11596 [DTC],2025-124E,2026-06-14T06:48:05.621760,15.70989211,.0001872,42.9952,167.1993,121.6584,238.4466,0,U,64321,999,5802,.12959E-2,.170347E-2,0
STARLINK-11747 [DTC],2025-124F,2026-06-14T17:13:43.759776,15.70835700,.00003932,43.0014,164.4275,243.4460,116.6367,0,U,64322,999,5809,.13105291E-2,.171187E-2,0
STARLINK-11728 [DTC],2025-124G,2026-06-15T06:11:53.327040,15.70914940,.0001271,43.0011,160.7251,234.1393,125.9356,0,U,64323,999,5818,.12589E-2,.164841E-2,0
STARLINK-11696 [DTC],2025-124H,2026-06-15T06:27:10.865664,15.70900101,.0001723,42.9993,160.8079,255.8728,104.1948,0,U,64324,999,5818,.12474E-2,.163201E-2,0
STARLINK-11698 [DTC],2025-124J,2026-06-14T16:52:05.966976,15.70891599,.00013882,42.9973,164.3080,267.3378,92.7331,0,U,64325,999,5809,.12996928E-2,.170145E-2,0
STARLINK-11678 [DTC],2025-124K,2026-06-15T12:00:02.000160,15.82682452,.0002494,42.9952,159.1720,131.5329,192.9581,0,U,64326,999,608,.26824E-2,.62629E-2,0
STARLINK-11674 [DTC],2025-124L,2026-06-15T07:51:05.467968,15.70894347,.0002783,42.9995,160.3789,258.1907,101.8648,0,U,64327,999,5819,.10941E-2,.142708E-2,0
STARLINK-11707 [DTC],2025-124M,2026-06-14T06:17:31.962336,15.70891480,.0001763,42.9990,167.0247,266.1293,93.9373,0,U,64328,999,5802,.75606E-3,.97927E-3,0
STARLINK-11734 [DTC],2025-124N,2026-06-15T10:38:55.597056,15.71031544,.0001813,42.9991,159.5282,291.9320,68.1355,0,U,64329,999,5821,.14347E-2,.189424E-2,0
STARLINK-34252,2025-124P,2026-06-12T15:57:42.796224,15.27602351,.00029952,43.0090,305.5237,283.3622,76.6896,0,U,64330,999,5630,.76822132E-3,.20953E-3,0
STARLINK-34050,2025-124Q,2026-06-15T01:46:42.349728,15.27584110,.00014809,43.0041,291.7753,272.0736,87.9946,0,U,64331,999,5773,.59097997E-3,.16038E-3,0
STARLINK-33782,2025-124R,2026-06-15T01:30:02.430432,15.27611294,.00006528,42.9932,291.6831,76.3798,283.7127,0,U,64332,999,5667,.65189102E-3,.17737E-3,0
STARLINK-34207,2025-124S,2026-06-15T01:55:57.899136,15.27589275,.00022343,43.0050,291.8292,279.0131,81.0467,0,U,64333,999,5667,.59332606E-3,.16105E-3,0
STARLINK-34260,2025-124T,2026-06-14T15:07:59.513088,15.27558127,.0002177,43.0017,294.4668,269.8025,90.2577,0,U,64334,999,5660,.73537E-3,.20016E-3,0
STARLINK-33855,2025-124U,2026-06-15T01:24:29.542464,15.27591391,.00022584,42.9979,291.6526,267.9936,92.0657,0,U,64335,999,5667,.65875922E-3,.17916E-3,0
STARLINK-34223,2025-124V,2026-06-15T01:08:32.620992,15.27582219,.00011335,42.9983,288.1072,280.0230,80.0493,0,U,64336,999,5671,.87718048E-3,.23956E-3,0
STARLINK-34216,2025-124W,2026-06-15T01:04:08.633568,15.27582123,.00018954,42.9995,291.5503,272.7615,87.3019,0,U,64337,999,5667,.54624527E-3,.14801E-3,0
